CCSDS_OMM_VERS = 2.0
CREATION_DATE  = 
ORIGINATOR     = 

OBJECT_NAME    = COSMOS 1933
OBJECT_ID      = 1988-020A
CENTER_NAME    = EARTH
REF_FRAME      = TEME
TIME_SYSTEM    = UTC
MEAN_ELEMENT_THEORY = SGP/SGP4

EPOCH          = 2026-02-25T12:41:18.661344
MEAN_MOTION    = 15.17857437
ECCENTRICITY   = .00028027
INCLINATION    = 82.5100
RA_OF_ASC_NODE = 262.9459
ARG_OF_PERICENTER = 231.2752
MEAN_ANOMALY   = 128.8232

EPHEMERIS_TYPE = 0
CLASSIFICATION_TYPE = U
NORAD_CAT_ID   = 18958
ELEMENT_SET_NO = 999
REV_AT_EPOCH   = 4838
BSTAR          = .1730066E-3
MEAN_MOTION_DOT = .3532E-4
MEAN_MOTION_DDOT = 0

CCSDS_OMM_VERS = 2.0
CREATION_DATE  = 
ORIGINATOR     = 

OBJECT_NAME    = SL-3 R/B
OBJECT_ID      = 1988-032B
CENTER_NAME    = EARTH
REF_FRAME      = TEME
TIME_SYSTEM    = UTC
MEAN_ELEMENT_THEORY = SGP/SGP4

EPOCH          = 2026-02-25T13:15:20.348640
MEAN_MOTION    = 15.19739572
ECCENTRICITY   = .00241157
INCLINATION    = 97.5174
RA_OF_ASC_NODE = 39.8498
ARG_OF_PERICENTER = 277.1517
MEAN_ANOMALY   = 82.6976

EPHEMERIS_TYPE = 0
CLASSIFICATION_TYPE = U
NORAD_CAT_ID   = 19046
ELEMENT_SET_NO = 999
REV_AT_EPOCH   = 5026
BSTAR          = .26097362E-3
MEAN_MOTION_DOT = .555E-4
MEAN_MOTION_DDOT = 0

CCSDS_OMM_VERS = 2.0
CREATION_DATE  = 
ORIGINATOR     = 

OBJECT_NAME    = SL-16 R/B
OBJECT_ID      = 1988-039B
CENTER_NAME    = EARTH
REF_FRAME      = TEME
TIME_SYSTEM    = UTC
MEAN_ELEMENT_THEORY = SGP/SGP4

EPOCH          = 2026-02-25T12:12:06.786432
MEAN_MOTION    = 14.19613797
ECCENTRICITY   = .00220321
INCLINATION    = 71.0132
RA_OF_ASC_NODE = 94.3076
ARG_OF_PERICENTER = 352.4995
MEAN_ANOMALY   = 7.5797

EPHEMERIS_TYPE = 0
CLASSIFICATION_TYPE = U
NORAD_CAT_ID   = 19120
ELEMENT_SET_NO = 999
REV_AT_EPOCH   = 95665
BSTAR          = .42797926E-4
MEAN_MOTION_DOT = .42E-6
MEAN_MOTION_DDOT = 0

CCSDS_OMM_VERS = 2.0
CREATION_DATE  = 
ORIGINATOR     = 

OBJECT_NAME    = COSMOS 1953
OBJECT_ID      = 1988-050A
CENTER_NAME    = EARTH
REF_FRAME      = TEME
TIME_SYSTEM    = UTC
MEAN_ELEMENT_THEORY = SGP/SGP4

EPOCH          = 2026-02-25T09:11:03.278112
MEAN_MOTION    = 15.28266166
ECCENTRICITY   = .00118545
INCLINATION    = 82.5101
RA_OF_ASC_NODE = 170.6185
ARG_OF_PERICENTER = 162.8680
MEAN_ANOMALY   = 197.2963

EPHEMERIS_TYPE = 0
CLASSIFICATION_TYPE = U
NORAD_CAT_ID   = 19210
ELEMENT_SET_NO = 999
REV_AT_EPOCH   = 3590
BSTAR          = .31503898E-3
MEAN_MOTION_DOT = .8724E-4
MEAN_MOTION_DDOT = 0

CCSDS_OMM_VERS = 2.0
CREATION_DATE  = 
ORIGINATOR     = 

OBJECT_NAME    = SL-8 R/B
OBJECT_ID      = 1988-053B
CENTER_NAME    = EARTH
REF_FRAME      = TEME
TIME_SYSTEM    = UTC
MEAN_ELEMENT_THEORY = SGP/SGP4

EPOCH          = 2026-02-25T15:30:37.397088
MEAN_MOTION    = 14.38907603
ECCENTRICITY   = .00210547
INCLINATION    = 74.0479
RA_OF_ASC_NODE = 134.6651
ARG_OF_PERICENTER = 315.8291
MEAN_ANOMALY   = 196.4068

EPHEMERIS_TYPE = 0
CLASSIFICATION_TYPE = U
NORAD_CAT_ID   = 19257
ELEMENT_SET_NO = 999
REV_AT_EPOCH   = 97486
BSTAR          = .78474696E-4
MEAN_MOTION_DOT = .216E-5
MEAN_MOTION_DDOT = 0

CCSDS_OMM_VERS = 2.0
CREATION_DATE  = 
ORIGINATOR     = 

OBJECT_NAME    = COSMOS 1975
OBJECT_ID      = 1988-093A
CENTER_NAME    = EARTH
REF_FRAME      = TEME
TIME_SYSTEM    = UTC
MEAN_ELEMENT_THEORY = SGP/SGP4

EPOCH          = 2026-02-25T06:45:57.424032
MEAN_MOTION    = 15.27845543
ECCENTRICITY   = .0011037
INCLINATION    = 82.5206
RA_OF_ASC_NODE = 130.1370
ARG_OF_PERICENTER = 207.1787
MEAN_ANOMALY   = 152.8876

EPHEMERIS_TYPE = 0
CLASSIFICATION_TYPE = U
NORAD_CAT_ID   = 19573
ELEMENT_SET_NO = 999
REV_AT_EPOCH   = 1751
BSTAR          = .29607E-3
MEAN_MOTION_DOT = .8094E-4
MEAN_MOTION_DDOT = 0

CCSDS_OMM_VERS = 2.0
CREATION_DATE  = 
ORIGINATOR     = 

OBJECT_NAME    = SL-14 R/B
OBJECT_ID      = 1988-093B
CENTER_NAME    = EARTH
REF_FRAME      = TEME
TIME_SYSTEM    = UTC
MEAN_ELEMENT_THEORY = SGP/SGP4

EPOCH          = 2026-02-25T11:33:42.553728
MEAN_MOTION    = 14.85639288
ECCENTRICITY   = .00223229
INCLINATION    = 82.5283
RA_OF_ASC_NODE = 53.5058
ARG_OF_PERICENTER = 79.4016
MEAN_ANOMALY   = 36.6361

EPHEMERIS_TYPE = 0
CLASSIFICATION_TYPE = U
NORAD_CAT_ID   = 19574
ELEMENT_SET_NO = 999
REV_AT_EPOCH   = 99922
BSTAR          = .57186579E-4
MEAN_MOTION_DOT = .522E-5
MEAN_MOTION_DDOT = 0

CCSDS_OMM_VERS = 2.0
CREATION_DATE  = 
ORIGINATOR     = 

OBJECT_NAME    = SL-16 R/B
OBJECT_ID      = 1988-102B
CENTER_NAME    = EARTH
REF_FRAME      = TEME
TIME_SYSTEM    = UTC
MEAN_ELEMENT_THEORY = SGP/SGP4

EPOCH          = 2026-02-25T13:03:04.112640
MEAN_MOTION    = 14.16150649
ECCENTRICITY   = .00132305
INCLINATION    = 71.0004
RA_OF_ASC_NODE = 177.0508
ARG_OF_PERICENTER = 20.1430
MEAN_ANOMALY   = 340.0213

EPHEMERIS_TYPE = 0
CLASSIFICATION_TYPE = U
NORAD_CAT_ID   = 19650
ELEMENT_SET_NO = 999
REV_AT_EPOCH   = 92517
BSTAR          = -.10390677E-3
MEAN_MOTION_DOT = -.254E-5
MEAN_MOTION_DDOT = 0

CCSDS_OMM_VERS = 2.0
CREATION_DATE  = 
ORIGINATOR     = 

OBJECT_NAME    = INTERCOSMOS 24
OBJECT_ID      = 1989-080A
CENTER_NAME    = EARTH
REF_FRAME      = TEME
TIME_SYSTEM    = UTC
MEAN_ELEMENT_THEORY = SGP/SGP4

EPOCH          = 2026-02-25T06:04:07.356288
MEAN_MOTION    = 12.59536536
ECCENTRICITY   = .1187069
INCLINATION    = 82.6043
RA_OF_ASC_NODE = 112.5022
ARG_OF_PERICENTER = 321.7148
MEAN_ANOMALY   = 30.5139

EPHEMERIS_TYPE = 0
CLASSIFICATION_TYPE = U
NORAD_CAT_ID   = 20261
ELEMENT_SET_NO = 999
REV_AT_EPOCH   = 66523
BSTAR          = .17341E-3
MEAN_MOTION_DOT = .588E-5
MEAN_MOTION_DDOT = 0

CCSDS_OMM_VERS = 2.0
CREATION_DATE  = 
ORIGINATOR     = 

OBJECT_NAME    = SL-14 R/B
OBJECT_ID      = 1989-080C
CENTER_NAME    = EARTH
REF_FRAME      = TEME
TIME_SYSTEM    = UTC
MEAN_ELEMENT_THEORY = SGP/SGP4

EPOCH          = 2026-02-25T09:25:40.169856
MEAN_MOTION    = 12.50475320
ECCENTRICITY   = .12300737
INCLINATION    = 82.5969
RA_OF_ASC_NODE = 181.0783
ARG_OF_PERICENTER = 212.8550
MEAN_ANOMALY   = 138.9950

EPHEMERIS_TYPE = 0
CLASSIFICATION_TYPE = U
NORAD_CAT_ID   = 20262
ELEMENT_SET_NO = 999
REV_AT_EPOCH   = 65861
BSTAR          = .1793336E-3
MEAN_MOTION_DOT = .601E-5
MEAN_MOTION_DDOT = 0

CCSDS_OMM_VERS = 2.0
CREATION_DATE  = 
ORIGINATOR     = 

OBJECT_NAME    = DELTA 1 R/B
OBJECT_ID      = 1989-089B
CENTER_NAME    = EARTH
REF_FRAME      = TEME
TIME_SYSTEM    = UTC
MEAN_ELEMENT_THEORY = SGP/SGP4

EPOCH          = 2026-02-25T13:11:56.175072
MEAN_MOTION    = 14.50651434
ECCENTRICITY   = .00696294
INCLINATION    = 97.0713
RA_OF_ASC_NODE = 265.9190
ARG_OF_PERICENTER = 159.8631
MEAN_ANOMALY   = 200.5339

EPHEMERIS_TYPE = 0
CLASSIFICATION_TYPE = U
NORAD_CAT_ID   = 20323
ELEMENT_SET_NO = 999
REV_AT_EPOCH   = 89397
BSTAR          = .86466889E-4
MEAN_MOTION_DOT = .315E-5
MEAN_MOTION_DDOT = 0

CCSDS_OMM_VERS = 2.0
CREATION_DATE  = 
ORIGINATOR     = 

OBJECT_NAME    = ARIANE 40 R/B
OBJECT_ID      = 1990-005H
CENTER_NAME    = EARTH
REF_FRAME      = TEME
TIME_SYSTEM    = UTC
MEAN_ELEMENT_THEORY = SGP/SGP4

EPOCH          = 2026-02-25T03:59:11.854752
MEAN_MOTION    = 14.39860911
ECCENTRICITY   = .00091321
INCLINATION    = 98.3112
RA_OF_ASC_NODE = 117.1990
ARG_OF_PERICENTER = 238.2696
MEAN_ANOMALY   = 121.7603

EPHEMERIS_TYPE = 0
CLASSIFICATION_TYPE = U
NORAD_CAT_ID   = 20443
ELEMENT_SET_NO = 999
REV_AT_EPOCH   = 89100
BSTAR          = .82731503E-4
MEAN_MOTION_DOT = .217E-5
MEAN_MOTION_DDOT = 0

