COSMOS 1933             
1 18958U 88020A   26056.52868821  .00003532  00000+0  17301-3 0  9995
2 18958  82.5100 262.9459 0002802 231.2752 128.8232 15.17857437 48387
SL-3 R/B                
1 19046U 88032B   26056.55231885  .00005550  00000+0  26097-3 0  9998
2 19046  97.5174  39.8498 0024115 277.1517  82.6976 15.19739572 50269
SL-16 R/B               
1 19120U 88039B   26056.50841188  .00000042  00000+0  42798-4 0  9994
2 19120  71.0132  94.3076 0022032 352.4995   7.5797 14.19613797956658
COSMOS 1953             
1 19210U 88050A   26056.38267683  .00008724  00000+0  31504-3 0  9992
2 19210  82.5101 170.6185 0011854 162.8680 197.2963 15.28266166 35907
SL-8 R/B                
1 19257U 88053B   26056.64626617  .00000216  00000+0  78475-4 0  9998
2 19257  74.0479 134.6651 0021054 315.8291 196.4068 14.38907603974863
COSMOS 1975             
1 19573U 88093A   26056.28191463  .00008094  00000+0  29607-3 0  9993
2 19573  82.5206 130.1370 0011037 207.1787 152.8876 15.27845543 17514
SL-14 R/B               
1 19574U 88093B   26056.48174252  .00000522  00000+0  57187-4 0  9996
2 19574  82.5283  53.5058 0022322  79.4016  36.6361 14.85639288999220
SL-16 R/B               
1 19650U 88102B   26056.54379760 -.00000254  00000+0 -10391-3 0  9999
2 19650  71.0004 177.0508 0013230  20.1430 340.0213 14.16150649925176
INTERCOSMOS 24          
1 20261U 89080A   26056.25286292  .00000588  00000+0  17341-3 0  9990
2 20261  82.6043 112.5022 1187069 321.7148  30.5139 12.59536536665235
SL-14 R/B               
1 20262U 89080C   26056.39282604  .00000601  00000+0  17933-3 0  9992
2 20262  82.5969 181.0783 1230073 212.8550 138.9950 12.50475320658610
DELTA 1 R/B             
1 20323U 89089B   26056.54995573  .00000315  00000+0  86467-4 0  9993
2 20323  97.0713 265.9190 0069629 159.8631 200.5339 14.50651434893977
ARIANE 40 R/B           
1 20443U 90005H   26056.16610943  .00000217  00000+0  82732-4 0  9991
2 20443  98.3112 117.1990 0009132 238.2696 121.7603 14.39860911891008
